{"type": "FeatureCollection", "features": [ {"type": "Feature", "properties": {"norad_id": 33492, "name": "GOSAT (IBUKI)", "group": "resource", "lat": 10.5697271505447, "lon": 93.41233883855162, "alt_km": 670.2835336550143, "timestamp": "2025-12-12T07:43:20.160273+00:00", "meta": {"OBJECT_NAME": "GOSAT (IBUKI)", "OBJECT_ID": "2009-002A", "EPOCH": "2025-12-11T21:51:20.233440", "MEAN_MOTION": 14.67552551, "ECCENTRICITY": 9.406e-05, "INCLINATION": 98.0768, "RA_OF_ASC_NODE": 94.5254, "ARG_OF_PERICENTER": 91.0817, "MEAN_ANOMALY": 269.0495, "EPHEMERIS_TYPE": 0, "CLASSIFICATION_TYPE": "U", "NORAD_CAT_ID": 33492, "ELEMENT_SET_NO": 999, "REV_AT_EPOCH": 90399, "BSTAR": 0.00025937182, "MEAN_MOTION_DOT": 1.423e-05, "MEAN_MOTION_DDOT": 0}, "tle": {"line1": "1 33492U 09002A   25345.91065085  .00001423  00000+0  25937-3 0  9993", "line2": "2 33492  98.0768  94.5254 0000940  91.0817 269.0495 14.67552551903995"}}, "geometry": {"type": "Point", "coordinates": [93.41233883855162, 10.5697271505447]}}, {"type": "Feature", "properties": {"norad_id": 35681, "name": "DEIMOS-1", "group": "resource", "lat": 75.30255980716417, "lon": 115.82443719497066, "alt_km": 636.2400059716165, "timestamp": "2025-12-12T07:43:20.160284+00:00", "meta": {"OBJECT_NAME": "DEIMOS-1", "OBJECT_ID": "2009-041A", "EPOCH": "2025-12-11T23:13:54.203808", "MEAN_MOTION": 14.7495213, "ECCENTRICITY": 0.00027278, "INCLINATION": 97.715, "RA_OF_ASC_NODE": 146.607, "ARG_OF_PERICENTER": 80.9181, "MEAN_ANOMALY": 279.2337, "EPHEMERIS_TYPE": 0, "CLASSIFICATION_TYPE": "U", "NORAD_CAT_ID": 35681, "ELEMENT_SET_NO": 999, "REV_AT_EPOCH": 87928, "BSTAR": 0.00022455325, "MEAN_MOTION_DOT": 1.461e-05, "MEAN_MOTION_DDOT": 0}, "tle": {"line1": "1 35681U 09041A   25345.96798847  .00001461  00000+0  22455-3 0  9996", "line2": "2 35681  97.7150 146.6070 0002727  80.9181 279.2337 14.74952130879286"}}, "geometry": {"type": "Point", "coordinates": [115.82443719497066, 75.30255980716417]}}, {"type": "Feature", "properties": {"norad_id": 35682, "name": "DUBAISAT-1", "group": "resource", "lat": 12.706313089853637, "lon": 115.19524383283418, "alt_km": 643.9250174910903, "timestamp": "2025-12-12T07:43:20.160295+00:00", "meta": {"OBJECT_NAME": "DUBAISAT-1", "OBJECT_ID": "2009-041B", "EPOCH": "2025-12-11T23:31:17.778432", "MEAN_MOTION": 14.7460116, "ECCENTRICITY": 0.00096002, "INCLINATION": 97.9785, "RA_OF_ASC_NODE": 116.6709, "ARG_OF_PERICENTER": 317.2917, "MEAN_ANOMALY": 42.7545, "EPHEMERIS_TYPE": 0, "CLASSIFICATION_TYPE": "U", "NORAD_CAT_ID": 35682, "ELEMENT_SET_NO": 999, "REV_AT_EPOCH": 87750, "BSTAR": 0.00034685046, "MEAN_MOTION_DOT": 2.263e-05, "MEAN_MOTION_DDOT": 0}, "tle": {"line1": "1 35682U 09041B   25345.98006688  .00002263  00000+0  34685-3 0  9993", "line2": "2 35682  97.9785 116.6709 0009600 317.2917  42.7545 14.74601160877500"}}, "geometry": {"type": "Point", "coordinates": [115.19524383283418, 12.706313089853637]}}, {"type": "Feature", "properties": {"norad_id": 35931, "name": "OCEANSAT-2", "group": "resource", "lat": -56.276160685054386, "lon": -0.5253434238482089, "alt_km": 904.8081933413723, "timestamp": "2025-12-12T07:43:20.160310+00:00", "meta": {"OBJECT_NAME": "OCEANSAT-2", "OBJECT_ID": "2009-051A", "EPOCH": "2025-12-11T23:24:58.517856", "MEAN_MOTION": 13.9962485, "ECCENTRICITY": 0.00162388, "INCLINATION": 98.2223, "RA_OF_ASC_NODE": 346.6538, "ARG_OF_PERICENTER": 47.0605, "MEAN_ANOMALY": 313.1921, "EPHEMERIS_TYPE": 0, "CLASSIFICATION_TYPE": "U", "NORAD_CAT_ID": 35931, "ELEMENT_SET_NO": 999, "REV_AT_EPOCH": 85314, "BSTAR": -6.7295441e-05, "MEAN_MOTION_DOT": -1.36e-06, "MEAN_MOTION_DDOT": 0}, "tle": {"line1": "1 35931U 09051A   25345.97567729 -.00000136  00000+0 -67295-4 0  9991", "line2": "2 35931  98.2223 346.6538 0016238  47.0605 313.1921 13.99624850853144"}}, "geometry": {"type": "Point", "coordinates": [-0.5253434238482089, -56.276160685054386]}}, {"type": "Feature", "properties": {"norad_id": 35946, "name": "WORLDVIEW-2 (WV-2)", "group": "resource", "lat": 6.822696007336125, "lon": 56.38974744720892, "alt_km": 766.4441363457508, "timestamp": "2025-12-12T07:43:20.160322+00:00", "meta": {"OBJECT_NAME": "WORLDVIEW-2 (WV-2)", "OBJECT_ID": "2009-055A", "EPOCH": "2025-12-11T23:20:20.194080", "MEAN_MOTION": 14.37723811, "ECCENTRICITY": 0.00051472, "INCLINATION": 98.4791, "RA_OF_ASC_NODE": 57.0679, "ARG_OF_PERICENTER": 72.3331, "MEAN_ANOMALY": 287.8418, "EPHEMERIS_TYPE": 0, "CLASSIFICATION_TYPE": "U", "NORAD_CAT_ID": 35946, "ELEMENT_SET_NO": 999, "REV_AT_EPOCH": 84874, "BSTAR": 0.00010642203, "MEAN_MOTION_DOT": 2.77e-06, "MEAN_MOTION_DDOT": 0}, "tle": {"line1": "1 35946U 09055A   25345.97245595  .00000277  00000+0  10642-3 0  9992", "line2": "2 35946  98.4791  57.0679 0005147  72.3331 287.8418 14.37723811848743"}}, "geometry": {"type": "Point", "coordinates": [56.38974744720892, 6.822696007336125]}}, {"type": "Feature", "properties": {"norad_id": 36036, "name": "SMOS", "group": "resource", "lat": 38.90294153259427, "lon": 164.4962167269418, "alt_km": 755.8317328534176, "timestamp": "2025-12-12T07:43:20.160332+00:00", "meta": {"OBJECT_NAME": "SMOS", "OBJECT_ID": "2009-059A", "EPOCH": "2025-12-11T23:12:00.642240", "MEAN_MOTION": 14.39740214, "ECCENTRICITY": 0.00011035, "INCLINATION": 98.438, "RA_OF_ASC_NODE": 171.0265, "ARG_OF_PERICENTER": 85.138, "MEAN_ANOMALY": 274.9934, "EPHEMERIS_TYPE": 0, "CLASSIFICATION_TYPE": "U", "NORAD_CAT_ID": 36036, "ELEMENT_SET_NO": 999, "REV_AT_EPOCH": 84651, "BSTAR": 0.00020718147, "MEAN_MOTION_DOT": 6.06e-06, "MEAN_MOTION_DDOT": 0}, "tle": {"line1": "1 36036U 09059A   25345.96667410  .00000606  00000+0  20718-3 0  9991", "line2": "2 36036  98.4380 171.0265 0001103  85.1380 274.9934 14.39740214846511"}}, "geometry": {"type": "Point", "coordinates": [164.4962167269418, 38.90294153259427]}}, {"type": "Feature", "properties": {"norad_id": 36110, "name": "YAOGAN-7", "group": "resource", "lat": 12.617869028369322, "lon": 49.891049691555985, "alt_km": 644.8145886268849, "timestamp": "2025-12-12T07:43:20.160343+00:00", "meta": {"OBJECT_NAME": "YAOGAN-7", "OBJECT_ID": "2009-069A", "EPOCH": "2025-12-11T14:42:54.355104", "MEAN_MOTION": 14.77729937, "ECCENTRICITY": 0.00233975, "INCLINATION": 98.0301, "RA_OF_ASC_NODE": 227.3742, "ARG_OF_PERICENTER": 285.1322, "MEAN_ANOMALY": 74.7301, "EPHEMERIS_TYPE": 0, "CLASSIFICATION_TYPE": "U", "NORAD_CAT_ID": 36110, "ELEMENT_SET_NO": 999, "REV_AT_EPOCH": 86192, "BSTAR": 0.00015791372, "MEAN_MOTION_DOT": 1.083e-05, "MEAN_MOTION_DDOT": 0}, "tle": {"line1": "1 36110U 09069A   25345.61312911  .00001083  00000+0  15791-3 0  9995", "line2": "2 36110  98.0301 227.3742 0023397 285.1322  74.7301 14.77729937861922"}}, "geometry": {"type": "Point", "coordinates": [49.891049691555985, 12.617869028369322]}}, {"type": "Feature", "properties": {"norad_id": 36605, "name": "TANDEM-X", "group": "resource", "lat": -9.16576148626658, "lon": -7.082761693192808, "alt_km": 512.5488855717058, "timestamp": "2025-12-12T07:43:20.160353+00:00", "meta": {"OBJECT_NAME": "TANDEM-X", "OBJECT_ID": "2010-030A", "EPOCH": "2025-12-11T11:12:43.510464", "MEAN_MOTION": 15.19157824, "ECCENTRICITY": 0.00018635, "INCLINATION": 97.4452, "RA_OF_ASC_NODE": 350.866, "ARG_OF_PERICENTER": 82.9447, "MEAN_ANOMALY": 277.1999, "EPHEMERIS_TYPE": 0, "CLASSIFICATION_TYPE": "U", "NORAD_CAT_ID": 36605, "ELEMENT_SET_NO": 999, "REV_AT_EPOCH": 85814, "BSTAR": 0.00012772132, "MEAN_MOTION_DOT": 2.617e-05, "MEAN_MOTION_DDOT": 0}, "tle": {"line1": "1 36605U 10030A   25345.46717026  .00002617  00000+0  12772-3 0  9993", "line2": "2 36605  97.4452 350.8660 0001863  82.9447 277.1999 15.19157824858146"}}, "geometry": {"type": "Point", "coordinates": [-7.082761693192808, -9.16576148626658]}}, {"type": "Feature", "properties": {"norad_id": 36795, "name": "CARTOSAT-2B", "group": "resource", "lat": 81.51428698456769, "lon": -78.13749632050776, "alt_km": 617.0203023328177, "timestamp": "2025-12-12T07:43:20.160364+00:00", "meta": {"OBJECT_NAME": "CARTOSAT-2B", "OBJECT_ID": "2010-035A", "EPOCH": "2025-12-12T00:48:23.177376", "MEAN_MOTION": 14.78725891, "ECCENTRICITY": 0.00131193, "INCLINATION": 97.7856, "RA_OF_ASC_NODE": 35.0865, "ARG_OF_PERICENTER": 78.8922, "MEAN_ANOMALY": 281.3764, "EPHEMERIS_TYPE": 0, "CLASSIFICATION_TYPE": "U", "NORAD_CAT_ID": 36795, "ELEMENT_SET_NO": 999, "REV_AT_EPOCH": 83219, "BSTAR": 0.0010849764, "MEAN_MOTION_DOT": 7.931e-05, "MEAN_MOTION_DDOT": 0}, "tle": {"line1": "1 36795U 10035A   25346.03360159  .00007931  00000+0  10850-2 0  9991", "line2": "2 36795  97.7856  35.0865 0013119  78.8922 281.3764 14.78725891832198"}}, "geometry": {"type": "Point", "coordinates": [-78.13749632050776, 81.51428698456769]}}, {"type": "Feature", "properties": {"norad_id": 36834, "name": "YAOGAN-10", "group": "resource", "lat": 15.069457694355007, "lon": -171.70782146879043, "alt_km": 615.531959899904, "timestamp": "2025-12-12T07:43:20.160375+00:00", "meta": {"OBJECT_NAME": "YAOGAN-10", "OBJECT_ID": "2010-038A", "EPOCH": "2025-12-12T00:52:19.318080", "MEAN_MOTION": 14.84606664, "ECCENTRICITY": 0.00015468, "INCLINATION": 97.9148, "RA_OF_ASC_NODE": 5.8622, "ARG_OF_PERICENTER": 83.5679, "MEAN_ANOMALY": 356.5281, "EPHEMERIS_TYPE": 0, "CLASSIFICATION_TYPE": "U", "NORAD_CAT_ID": 36834, "ELEMENT_SET_NO": 999, "REV_AT_EPOCH": 82943, "BSTAR": 0.00058296627, "MEAN_MOTION_DOT": 4.873e-05, "MEAN_MOTION_DDOT": 0}, "tle": {"line1": "1 36834U 10038A   25346.03633470  .00004873  00000+0  58297-3 0  9997", "line2": "2 36834  97.9148   5.8622 0001546  83.5679 356.5281 14.84606664829432"}}, "geometry": {"type": "Point", "coordinates": [-171.70782146879043, 15.069457694355007]}}]}